STARLINK-31193          
1 58797U 24012L   26068.34153555 -.00002875  00000+0 -94978-4 0  9992
2 58797  43.0014 167.1338 0001525 274.8459  85.2219 15.27580624121181
FLOCK 4G-24             
1 62637U 25009AE  26068.72509072  .00010513  00000+0  38996-3 0  9991
2 62637  97.4061 151.5140 0001802 280.2808  79.8228 15.27784978 63732
